C/2022 F1 (ATLAS),e,57.9808,350.6365,278.3971,54910,0.0000001,0.99989108,0.0000,08/06.2816/2022,2000,g  7.0,4.0
# From MPC194179
C/2022 H1 (PANSTARRS),e,49.8660,6.3024,246.2909,870.1523,0.0000384,0.99116454,0.0000,01/18.4778/2024,2000,g  6.0,4.0
# From MPC194180
C/2022 JK5 (PANSTARRS),e,16.8285,59.6531,247.3489,43.40933,0.0034461,0.93790823,3.9167,06/08.0/2026,2000,g 11.0,4.0
# From MPC194180
C/2022 L2 (ATLAS),h,03/11.8966/2024,129.3108,39.2511,199.9241,1.000241,2.694472,2000,6.5,4.0
# From MPEC 2026-K60
C/2022 N2 (PANSTARRS),h,08/01.1247/2025,5.5033,319.7290,75.4640,1.004085,3.826415,2000,6.0,4.0
# From MPC194180
C/2022 O1 (ATLAS),h,02/14.6289/2022,71.0758,49.9020,268.9266,1.000275,7.435141,2000,6.0,4.0
# From MPC194181
P/2022 P2 (ZTF),e,12.4415,291.1682,137.8177,4.493701,0.1034660,0.55758584,147.7686,06/08.0/2026,2000,g 12.5,4.0
# From MPEC 2026-KB8
C/2022 QE78 (ATLAS),e,36.6585,119.8920,0.6589,1435,0.0000181,0.99618328,0.0000,09/12.1656/2025,2000,g  5.0,4.0
# From MPC194181
P/2022 R1 (PANSTARRS),e,7.3927,175.5720,221.5807,7.113375,0.0519506,0.49957047,50.9015,06/08.0/2026,2000,g 11.5,4.0
# From MPC194181
C/2022 R3 (Leonard),h,03/05.9275/2023,43.0569,8.2699,72.9639,1.001405,5.135249,2000,9.0,4.0
# From MPC194181
P/2022 R5 (PANSTARRS),e,15.2923,115.0393,240.4553,3.071048,0.1831362,0.19445842,270.0883,06/08.0/2026,2000,g 16.0,4.0
# From MPEC 2026-KB8
C/2022 R6 (PANSTARRS),h,08/27.2581/2025,57.0370,150.7749,320.0110,1.004934,6.566533,2000,5.0,4.0
# From MPC194182
P/2022 S1 (PANSTARRS),e,34.5617,136.0842,262.8560,6.407917,0.0607615,0.50713732,84.4420,06/08.0/2026,2000,g 13.0,4.0
# From MPC194182
C/2022 S4 (Lemmon),e,101.1949,220.1784,268.5552,1418,0.0000185,0.99805231,0.0000,07/18.7848/2024,2000,g  8.0,4.0
# From MPC194182
C/2022 T1 (Lemmon),h,02/17.5750/2024,22.5371,236.8980,324.3029,1.000715,3.443403,2000,9.0,4.0
# From MPC194182
C/2022 U1 (Leonard),h,03/26.2303/2024,128.1385,72.5337,78.6161,1.000698,4.201637,2000,8.5,4.0
# From MPC194182
C/2022 U3 (Bok),e,33.6613,272.7871,189.1603,9569,0.0000011,0.99949543,0.0000,07/28.6882/2024,2000,g  7.5,4.0
# From MPC194182
C/2022 U4 (Bok),e,52.0603,132.9185,88.9618,3271,0.0000053,0.99911473,0.0000,08/03.7956/2023,2000,g 10.5,4.0
# From MPC194182
C/2022 V2 (Lemmon),e,98.9105,332.8286,168.9856,36.68240,0.0044363,0.94367481,4.2111,06/08.0/2026,2000,g 12.0,4.0
# From MPC194182
P/2022 W1 (Rankin),e,13.4601,38.8445,17.9697,6.977823,0.0534717,0.51607312,72.7885,06/08.0/2026,2000,g 12.5,4.0
# From MPC194183
C/2022 W2 (ATLAS),e,63.4899,320.4198,123.3609,340.2162,0.0001571,0.99080594,0.0000,03/08.5380/2023,2000,g 11.5,4.0
# From MPEC 2026-KB8
C/2023 A3 (Tsuchinshan-ATLAS),h,09/27.7977/2024,139.1036,21.6464,308.5664,1.000172,0.391478,2000,6.5,3.2
# From MPEC 2026-J11
P/2023 B1 (PANSTARRS),e,14.5862,78.5670,81.9886,7.072454,0.0524021,0.13148803,59.0494,06/08.0/2026,2000,g  5.5,4.0
# From MPC194183
P/2023 B3 (PANSTARRS),e,9.1557,153.9683,240.3802,4.552797,0.1014581,0.12176587,213.3325,06/08.0/2026,2000,g 10.5,4.0
# From MPEC 2026-GD5
C/2023 C2 (ATLAS),e,48.3225,301.0058,357.4152,1618,0.0000151,0.99853673,0.0000,11/16.6637/2024,2000,g  7.0,4.0
# From MPEC 2026-KB8
C/2023 F3 (ATLAS),h,02/02.8159/2025,145.9625,109.4688,265.5677,1.002848,5.192035,2000,6.0,4.0
# From MPC191587
C/2023 H1 (PANSTARRS),e,21.7824,292.6453,333.7231,744.8039,0.0000485,0.99402992,0.0000,11/28.4749/2024,2000,g  8.5,4.0
# From MPEC 2026-HH0
C/2023 H3 (PANSTARRS),e,2.4883,55.0752,193.2341,13.61702,0.0196147,0.61593917,16.4958,06/08.0/2026,2000,g 10.0,4.0
# From MPEC 2026-KB8
C/2023 H5 (Lemmon),h,06/30.4538/2025,97.8551,159.4715,60.1255,1.000643,4.312984,2000,7.0,4.0
# From MPC194184
P/2023 JN16 (Lemmon),e,3.7026,11.7617,353.5166,2.697625,0.2224497,0.14796304,116.3746,06/08.0/2026,2000,g 14.0,4.0
# From MPC194184
P/2023 M1 (PANSTARRS),e,12.2926,216.8658,79.6801,6.837197,0.0551299,0.58660731,50.0009,06/08.0/2026,2000,g 13.5,4.0
# From MPC194185
P/2023 M2 (PANSTARRS),e,19.7110,83.2572,243.7682,5.589110,0.0745916,0.36895473,78.0330,06/08.0/2026,2000,g 12.5,4.0
# From MPC194185
P/2023 M4 (ATLAS),e,7.5921,296.2669,320.3611,5.441753,0.0776418,0.27921418,117.8009,06/08.0/2026,2000,g  7.5,4.0
# From MPC194185
C/2023 P1 (Nishimura),e,132.4859,66.7651,116.1720,55.82952,0.0023627,0.99599282,0.0000,09/17.4692/2023,2000,g 10.0,4.0
# From MPC194185
C/2023 Q1 (PANSTARRS),h,12/01.0748/2024,36.6420,7.1242,84.4291,1.004710,2.576542,2000,10.0,4.0
# From MPC194185
C/2023 Q2 (PANSTARRS),e,104.0614,92.6755,171.6467,326.4505,0.0001671,0.99017427,0.0000,06/23.7576/2024,2000,g 11.5,4.0
# From MPEC 2026-KB8
C/2023 R1 (PANSTARRS),h,04/13.3746/2026,149.3142,62.5704,144.2594,1.002322,3.570077,2000,6.0,4.0
# From MPC194185
C/2023 R2 (PANSTARRS),h,08/12.2430/2024,30.6986,188.8530,337.3512,1.000395,0.904833,2000,10.5,4.0
# From MPC194185
C/2023 RN3 (ATLAS),e,10.3519,207.0665,130.6139,10.15707,0.0304475,0.48970012,37.6067,06/08.0/2026,2000,g  7.5,4.0
# From MPEC 2026-GD5
C/2023 RS61 (PANSTARRS),e,19.9470,347.0367,119.5603,11.89320,0.0240301,0.32792885,338.1292,06/08.0/2026,2000,g  6.8,4.0
# From MPEC 2026-K60
P/2023 S1 (PANSTARRS),e,9.1575,317.2857,180.3740,3.845253,0.1307124,0.31853008,61.2526,06/08.0/2026,2000,g 11.5,4.0
# From MPC194186
P/2023 T1 (PANSTARRS),e,6.6118,249.5808,202.9230,4.227043,0.1134094,0.33304036,84.6082,06/08.0/2026,2000,g 14.0,4.0
# From MPC194186
C/2023 T3 (Fuls),e,27.2166,246.0011,302.8607,1007,0.0000309,0.99647542,0.0000,01/25.4699/2025,2000,g  8.5,4.0
# From MPEC 2026-HH0
C/2023 TD22 (Lemmon),e,170.4875,5.5824,32.5279,48.28103,0.0029379,0.95121530,1.8500,06/08.0/2026,2000,g 12.5,4.0
# From MPC191587
C/2023 U1 (Fuls),e,108.1480,305.7997,255.6737,4691,0.0000031,0.99893968,0.0000,10/13.2457/2024,2000,g  8.0,4.0
# From MPEC 2026-KB8
C/2023 V1 (Lemmon),h,07/13.0705/2025,102.0066,15.0543,103.3223,1.000297,5.092695,2000,8.5,4.0
# From MPC194186
P/2023 V2 (PANSTARRS),e,9.8883,95.4730,330.5132,7.214599,0.0508611,0.56959979,43.5185,06/08.0/2026,2000,g 13.5,4.0
# From MPC194186
C/2023 V3 (PANSTARRS),e,40.6231,91.2627,291.8127,12.68504,0.0218156,0.64540065,22.7395,06/08.0/2026,2000,g 11.5,4.0
# From MPC194186
C/2023 V4 (Camarasa-Duszanowicz),h,05/30.4628/2024,67.0986,66.3254,50.8874,1.001320,1.122218,2000,12.0,4.0
# From MPC194187
P/2023 V6 (PANSTARRS),e,3.9851,189.3588,191.2572,5.270416,0.0814586,0.17550229,105.6197,06/08.0/2026,2000,g 11.5,4.0
# From MPC194187
C/2023 X1 (Leonard),e,110.5950,136.9605,321.4964,155.5798,0.0005079,0.99387464,0.0000,10/17.7795/2023,2000,g 13.5,3.2
# From MPEC 2026-KB8
C/2023 X2 (Lemmon),h,12/28.5299/2025,76.9809,66.3030,64.8079,1.000109,5.088656,2000,8.5,3.2
# From MPC194187
P/2023 X3 (PANSTARRS),e,4.4827,62.0191,40.9557,4.247707,0.1125828,0.28606756,87.4272,06/08.0/2026,2000,g 15.5,4.0
# From MPC194187
C/2023 X4 (Hogan),e,11.5898,28.7696,100.6519,9.934240,0.0314776,0.63156354,23.4079,06/08.0/2026,2000,g 12.0,4.0
# From MPC194187
C/2023 X7 (PANSTARRS),e,69.1275,119.2056,354.3869,3376,0.0000050,0.99857191,0.0000,05/14.9222/2025,2000,g  9.0,4.0
# From MPC194187
P/2023 Y2 (Gibbs),e,6.9914,79.2312,16.9585,3.748794,0.1357897,0.39206338,140.2449,06/08.0/2026,2000,g 15.5,4.0
# From MPEC 2026-KB8
C/2024 A1 (ATLAS),e,94.5050,112.1398,353.1951,9598,0.0000010,0.99959634,0.0000,06/12.9419/2025,2000,g  7.0,4.0
# From MPC194187
C/2024 A2 (ATLAS),e,119.1198,78.1743,295.5085,32.13724,0.0054099,0.94148366,4.1676,06/08.0/2026,2000,g 12.5,4.0
# From MPC194188
C/2024 B1 (Lemmon),h,10/07.7969/2024,70.8905,79.1879,66.2306,1.001264,1.633915,2000,13.0,4.0
# From MPC194188
C/2024 B2 (Lemmon),e,99.8731,294.3881,130.3201,1174,0.0000245,0.99652485,0.0000,10/05.2351/2023,2000,g 11.5,4.0
# From MPC194188
C/2024 C1 (PANSTARRS),e,14.2254,83.8123,94.5251,10.60008,0.0285588,0.58364578,18.4362,06/08.0/2026,2000,g 11.5,4.0
# From MPC194188
C/2024 C2 (PANSTARRS),e,27.2833,66.4579,87.6543,16.25515,0.0150390,0.44680327,6.7920,06/08.0/2026,2000,g  6.0,4.0
# From MPC194188
C/2024 C3 (PANSTARRS),e,22.4466,359.6948,159.7903,11.68580,0.0246727,0.42538775,23.2117,06/08.0/2026,2000,g  9.0,4.0
# From MPC194188
C/2024 D1 (Lemmon),e,132.4478,179.6519,125.8057,50057,0.0000001,0.99986633,0.0000,12/03.6542/2027,2000,g  7.3,4.0
# From MPEC 2026-J11
C/2024 E1 (Wierzchos),h,01/20.7760/2026,75.2373,108.0798,243.6268,1.000273,0.566137,2000,7.0,4.0
# From MPC194188
C/2024 E2 (Bok),e,155.6527,135.6595,358.2204,51.07491,0.0027002,0.84924402,2.5817,06/08.0/2026,2000,g  8.0,4.0
# From MPC194188
P/2024 F1 (PANSTARRS),e,7.0063,251.5139,229.6088,3.446490,0.1540418,0.46021320,147.2808,06/08.0/2026,2000,g 16.0,4.0
# From MPC194189
C/2024 F2 (PANSTARRS),e,13.7450,138.9392,112.8626,9.945876,0.0314224,0.60118800,21.3392,06/08.0/2026,2000,g 11.0,4.0
# From MPC194189
P/2024 FG9 (Nanshan-Hahn),e,1.7308,253.0324,245.9658,3.258263,0.1675810,0.51002073,125.4236,06/08.0/2026,2000,g 14.0,4.0
# From MPC194189
C/2024 G1 (Wierzchos),e,95.3781,30.6025,128.2198,121.8017,0.0007332,0.96773376,0.4362,06/08.0/2026,2000,g 10.0,4.0
# From MPEC 2026-KB8
C/2024 G2 (ATLAS),e,122.1204,171.3991,328.7635,691.2773,0.0000542,0.99226242,0.0000,06/13.7196/2025,2000,g  7.0,4.0
# From MPC194189
C/2024 G3 (ATLAS),h,01/13.4267/2025,116.8412,220.4556,108.1888,1.000009,0.093683,2000,9.0,4.0
# From MPEC 2026-KB8
C/2024 G4 (PANSTARRS),e,33.0295,152.9709,131.4054,3751,0.0000043,0.99869342,0.0000,03/21.4293/2026,2000,g  8.0,4.0
# From MPC194189
C/2024 G5 (Leonard),e,50.3898,316.3824,209.6154,629.7837,0.0000624,0.99530976,0.0000,09/07.1978/2024,2000,g 13.0,4.0
# From MPEC 2026-KB8
C/2024 G6 (ATLAS),h,02/20.5402/2026,120.4474,250.9484,23.4189,1.001429,6.429981,2000,5.5,4.0
# From MPC194189
C/2024 G7 (ATLAS),h,02/09.8818/2025,131.5050,191.9756,289.6477,1.001401,6.027291,2000,7.0,4.0
# From MPC194189
P/2024 J1 (PANSTARRS),e,13.1637,321.9366,200.3873,3.809128,0.1325762,0.30782551,124.5437,06/08.0/2026,2000,g 14.5,4.0
# From MPC191588
C/2024 J2 (Wierzchos),e,79.3015,189.0671,143.1417,146.1027,0.0005581,0.98760426,0.0000,03/19.7331/2025,2000,g 11.5,4.0
# From MPEC 2026-KB8
